IRIDIUM 7               
1 24793U 97020B   25297.92678978  .00000530  00000+0  17578-3 0  9992
2 24793  86.3926 122.5744 0002379  83.4353 276.7114 14.36042180490519
IRIDIUM 5               
1 24795U 97020D   25297.96623398  .00005354  00000+0  42429-3 0  9996
2 24795  86.3924  23.8137 0106788  33.2126 327.5746 14.95863912504856
IRIDIUM 4               
1 24796U 97020E   25297.96818075  .00000575  00000+0  18754-3 0  9999
2 24796  86.3918 119.3468 0002239  88.3321 271.8132 14.36945217491109
IRIDIUM 914             
1 24836U 97030A   25297.95494440  .00000644  00000+0  19429-3 0  9997
2 24836  86.3909 127.5733 0003168 114.0370 246.1162 14.40994353625818
IRIDIUM 16              
1 24841U 97030F   25297.97085369  .00000465  00000+0  14482-3 0  9996
2 24841  86.4047 150.8104 0003118  42.8341 317.3100 14.38820026485662
IRIDIUM 911             
1 24842U 97030G   25297.64538847  .00000718  00000+0  18840-3 0  9998
2 24842  86.4469 149.5764 0015341  33.0855 327.1305 14.47803296493813
IRIDIUM 17              
1 24870U 97034B   25297.75894541  .00000599  00000+0  19194-3 0  9991
2 24870  86.4016 180.3141 0001562  34.0677 326.0621 14.37960154482203
IRIDIUM 920             
1 24871U 97034C   25297.26072169  .00000597  00000+0  17702-3 0  9993
2 24871  86.4004 159.4793 0012442  25.3035 334.8772 14.41661051485173
